*******************************************************************************
Ephemeris / WWW_USER Mon Mar 24 07:20:31 2025 Pasadena, USA      / Horizons    
*******************************************************************************
Target body name: (2018 PM20)                     {source: JPL#2}
Center body name: Earth (399)                     {source: DE441}
Center-site name: Mauna Kea
*******************************************************************************
Start time      : A.D. 2019-Jan-08 04:08:00.0000 UT      
Stop  time      : A.D. 2019-Jan-08 16:48:00.0000 UT      
Step-size       : 1 minutes
*******************************************************************************
Target pole/equ : undefined
Target radii    : undefined                                                    
Center geodetic : 204.5278, 19.8260847, 4.21024   {E-lon(deg),Lat(deg),Alt(km)}
Center cylindric: 204.5278, 6006.35451, 2151.0229 {E-lon(deg),Dxy(km),Dz(km)}
Center pole/equ : ITRF93                          {East-longitude positive}
Center radii    : 6378.137, 6378.137, 6356.752 km {Equator_a, b, pole_c}       
Target primary  : Sun
Vis. interferer : MOON (R_eq= 1737.400) km        {source: DE441}
Rel. light bend : Sun                             {source: DE441}
Rel. lght bnd GM: 1.3271E+11 km^3/s^2                                          
Small-body perts: Yes                             {source: SB441-N16}
Atmos refraction: NO (AIRLESS)
RA format       : HMS
Time format     : CAL 
Calendar mode   : Mixed Julian/Gregorian
RTS-only print  : NO       
EOP file        : eop.250321.p250617                                           
EOP coverage    : DATA-BASED 1962-JAN-20 TO 2025-MAR-21. PREDICTS-> 2025-JUN-16
Units conversion: 1 au= 149597870.700 km, c= 299792.458 km/s, 1 day= 86400.0 s 
Table cut-offs 1: Elevation (-90.0deg=NO ),Airmass (>38.000=NO), Daylight (YES)
Table cut-offs 2: Solar elongation (  0.0,180.0=NO ),Local Hour Angle( 0.0=NO )
Table cut-offs 3: RA/DEC angular rate (     0.0=NO )                           
*******************************************************************************
Initial IAU76/J2000 heliocentric ecliptic osculating elements (au, days, deg.):
  EPOCH=  2458343.5 ! 2018-Aug-13.00 (TDB)         Residual RMS= .089003       
   EC= .5103595829140648   QR= .9783824475456468   TP= 2458372.5495769856      
   OM= 141.729241004527    W=  213.3086535448706   IN= 3.923256746335003       
  Equivalent ICRF heliocentric cartesian coordinates (au, au/d):
   X= 8.000585561647119E-01  Y=-6.125483166279821E-01  Z=-2.634816273742420E-01
  VX= 9.656077190407949E-03 VY= 1.708944028933422E-02 VZ= 5.904161592396531E-03
Asteroid physical parameters (km, seconds, rotational period in hours):        
   GM= n.a.                RAD= n.a.               ROTPER= n.a.                
   H= 26.3                 G= .150                 B-V= n.a.                   
                           ALBEDO= n.a.            STYP= n.a.                  
*******************************************************************************
 Date__(UT)__HR:MN     R.A._________(ICRF)_________DEC
******************************************************
$$SOE
 2019-Jan-08 04:08 Cm  05 15 28.511687 +16 25 28.54295
 2019-Jan-08 04:09 Cm  05 15 28.492228 +16 25 28.86010
 2019-Jan-08 04:10 Cm  05 15 28.472756 +16 25 29.17723
 2019-Jan-08 04:11 Cm  05 15 28.453272 +16 25 29.49432
 2019-Jan-08 04:12 Cm  05 15 28.433774 +16 25 29.81138
 2019-Jan-08 04:13 Cm  05 15 28.414264 +16 25 30.12841
 2019-Jan-08 04:14 Cm  05 15 28.394741 +16 25 30.44541
 2019-Jan-08 04:15 Cm  05 15 28.375206 +16 25 30.76238
 2019-Jan-08 04:16 Cm  05 15 28.355658 +16 25 31.07932
 2019-Jan-08 04:17 Cm  05 15 28.336097 +16 25 31.39622
 2019-Jan-08 04:18 Cm  05 15 28.316523 +16 25 31.71310
 2019-Jan-08 04:19 Cm  05 15 28.296937 +16 25 32.02994
 2019-Jan-08 04:20 Cm  05 15 28.277339 +16 25 32.34675
 2019-Jan-08 04:21 Cm  05 15 28.257728 +16 25 32.66352
 2019-Jan-08 04:22 Cm  05 15 28.238104 +16 25 32.98026
 2019-Jan-08 04:23 Nm  05 15 28.218468 +16 25 33.29697
 2019-Jan-08 04:24 Nm  05 15 28.198820 +16 25 33.61365
 2019-Jan-08 04:25 Nm  05 15 28.179159 +16 25 33.93029
 2019-Jan-08 04:26 Nm  05 15 28.159486 +16 25 34.24689
 2019-Jan-08 04:27 Nm  05 15 28.139801 +16 25 34.56347
 2019-Jan-08 04:28 Nm  05 15 28.120103 +16 25 34.88000
 2019-Jan-08 04:29 Nm  05 15 28.100394 +16 25 35.19651
 2019-Jan-08 04:30 Nm  05 15 28.080672 +16 25 35.51297
 2019-Jan-08 04:31 Nm  05 15 28.060937 +16 25 35.82941
 2019-Jan-08 04:32 Nm  05 15 28.041191 +16 25 36.14580
 2019-Jan-08 04:33 Nm  05 15 28.021433 +16 25 36.46216
 2019-Jan-08 04:34 Nm  05 15 28.001662 +16 25 36.77849
 2019-Jan-08 04:35 Nm  05 15 27.981880 +16 25 37.09478
 2019-Jan-08 04:36 Nm  05 15 27.962086 +16 25 37.41103
 2019-Jan-08 04:37 Nm  05 15 27.942279 +16 25 37.72725
 2019-Jan-08 04:38 Nm  05 15 27.922461 +16 25 38.04342
 2019-Jan-08 04:39 Nm  05 15 27.902631 +16 25 38.35956
 2019-Jan-08 04:40 Nm  05 15 27.882789 +16 25 38.67567
 2019-Jan-08 04:41 Nm  05 15 27.862935 +16 25 38.99173
 2019-Jan-08 04:42 Nm  05 15 27.843070 +16 25 39.30776
 2019-Jan-08 04:43 Nm  05 15 27.823193 +16 25 39.62375
 2019-Jan-08 04:44 Nm  05 15 27.803304 +16 25 39.93970
 2019-Jan-08 04:45 Nm  05 15 27.783403 +16 25 40.25561
 2019-Jan-08 04:46 Nm  05 15 27.763491 +16 25 40.57149
 2019-Jan-08 04:47 Nm  05 15 27.743568 +16 25 40.88732
 2019-Jan-08 04:48 Nm  05 15 27.723633 +16 25 41.20312
 2019-Jan-08 04:49 Nm  05 15 27.703686 +16 25 41.51887
 2019-Jan-08 04:50 Am  05 15 27.683728 +16 25 41.83459
 2019-Jan-08 04:51 Am  05 15 27.663759 +16 25 42.15026
 2019-Jan-08 04:52 Am  05 15 27.643778 +16 25 42.46590
 2019-Jan-08 04:53 Am  05 15 27.623786 +16 25 42.78149
 2019-Jan-08 04:54 Am  05 15 27.603782 +16 25 43.09704
 2019-Jan-08 04:55 Am  05 15 27.583768 +16 25 43.41256
 2019-Jan-08 04:56 Am  05 15 27.563742 +16 25 43.72803
 2019-Jan-08 04:57 Am  05 15 27.543705 +16 25 44.04346
 2019-Jan-08 04:58 Am  05 15 27.523657 +16 25 44.35885
 2019-Jan-08 04:59 Am  05 15 27.503598 +16 25 44.67419
 2019-Jan-08 05:00 Am  05 15 27.483528 +16 25 44.98950
 2019-Jan-08 05:01 Am  05 15 27.463447 +16 25 45.30476
 2019-Jan-08 05:02 Am  05 15 27.443355 +16 25 45.61998
 2019-Jan-08 05:03 Am  05 15 27.423252 +16 25 45.93516
 2019-Jan-08 05:04 Am  05 15 27.403138 +16 25 46.25029
 2019-Jan-08 05:05 Am  05 15 27.383014 +16 25 46.56538
 2019-Jan-08 05:06 Am  05 15 27.362878 +16 25 46.88043
 2019-Jan-08 05:07 Am  05 15 27.342732 +16 25 47.19543
 2019-Jan-08 05:08 Am  05 15 27.322576 +16 25 47.51039
 2019-Jan-08 05:09 Am  05 15 27.302408 +16 25 47.82531
 2019-Jan-08 05:10 Am  05 15 27.282230 +16 25 48.14018
 2019-Jan-08 05:11 Am  05 15 27.262042 +16 25 48.45500
 2019-Jan-08 05:12 Am  05 15 27.241843 +16 25 48.76979
 2019-Jan-08 05:13 Am  05 15 27.221634 +16 25 49.08452
 2019-Jan-08 05:14 Am  05 15 27.201414 +16 25 49.39921
 2019-Jan-08 05:15 Am  05 15 27.181184 +16 25 49.71386
 2019-Jan-08 05:16 Am  05 15 27.160943 +16 25 50.02846
 2019-Jan-08 05:17  m  05 15 27.140693 +16 25 50.34302
 2019-Jan-08 05:18  m  05 15 27.120432 +16 25 50.65753
 2019-Jan-08 05:19  m  05 15 27.100161 +16 25 50.97199
 2019-Jan-08 05:20  m  05 15 27.079880 +16 25 51.28641
 2019-Jan-08 05:21  m  05 15 27.059588 +16 25 51.60078
 2019-Jan-08 05:22  m  05 15 27.039287 +16 25 51.91510
 2019-Jan-08 05:23  m  05 15 27.018976 +16 25 52.22938
 2019-Jan-08 05:24  m  05 15 26.998655 +16 25 52.54360
 2019-Jan-08 05:25  m  05 15 26.978324 +16 25 52.85779
 2019-Jan-08 05:26  m  05 15 26.957983 +16 25 53.17192
 2019-Jan-08 05:27  m  05 15 26.937632 +16 25 53.48601
 2019-Jan-08 05:28  m  05 15 26.917272 +16 25 53.80004
 2019-Jan-08 05:29  m  05 15 26.896902 +16 25 54.11403
 2019-Jan-08 05:30  m  05 15 26.876522 +16 25 54.42798
 2019-Jan-08 05:31  m  05 15 26.856133 +16 25 54.74187
 2019-Jan-08 05:32  m  05 15 26.835734 +16 25 55.05571
 2019-Jan-08 05:33  m  05 15 26.815326 +16 25 55.36951
 2019-Jan-08 05:34  m  05 15 26.794908 +16 25 55.68325
 2019-Jan-08 05:35  m  05 15 26.774481 +16 25 55.99695
 2019-Jan-08 05:36  m  05 15 26.754045 +16 25 56.31060
 2019-Jan-08 05:37  m  05 15 26.733599 +16 25 56.62419
 2019-Jan-08 05:38  m  05 15 26.713144 +16 25 56.93774
 2019-Jan-08 05:39  m  05 15 26.692680 +16 25 57.25124
 2019-Jan-08 05:40  m  05 15 26.672207 +16 25 57.56468
 2019-Jan-08 05:41  m  05 15 26.651724 +16 25 57.87808
 2019-Jan-08 05:42  m  05 15 26.631233 +16 25 58.19143
 2019-Jan-08 05:43  m  05 15 26.610733 +16 25 58.50472
 2019-Jan-08 05:44  m  05 15 26.590223 +16 25 58.81796
 2019-Jan-08 05:45  m  05 15 26.569705 +16 25 59.13116
 2019-Jan-08 05:46  m  05 15 26.549178 +16 25 59.44430
 2019-Jan-08 05:47  m  05 15 26.528643 +16 25 59.75739
 2019-Jan-08 05:48  m  05 15 26.508098 +16 26 00.07042
 2019-Jan-08 05:49  m  05 15 26.487545 +16 26 00.38341
 2019-Jan-08 05:50     05 15 26.466984 +16 26 00.69634
 2019-Jan-08 05:51     05 15 26.446414 +16 26 01.00922
 2019-Jan-08 05:52     05 15 26.425835 +16 26 01.32205
 2019-Jan-08 05:53     05 15 26.405248 +16 26 01.63483
 2019-Jan-08 05:54     05 15 26.384652 +16 26 01.94755
 2019-Jan-08 05:55     05 15 26.364049 +16 26 02.26022
 2019-Jan-08 05:56     05 15 26.343437 +16 26 02.57284
 2019-Jan-08 05:57     05 15 26.322816 +16 26 02.88540
 2019-Jan-08 05:58     05 15 26.302188 +16 26 03.19791
 2019-Jan-08 05:59     05 15 26.281551 +16 26 03.51036
 2019-Jan-08 06:00     05 15 26.260907 +16 26 03.82277
 2019-Jan-08 06:01     05 15 26.240254 +16 26 04.13511
 2019-Jan-08 06:02     05 15 26.219593 +16 26 04.44741
 2019-Jan-08 06:03     05 15 26.198925 +16 26 04.75965
 2019-Jan-08 06:04     05 15 26.178249 +16 26 05.07183
 2019-Jan-08 06:05     05 15 26.157564 +16 26 05.38396
 2019-Jan-08 06:06     05 15 26.136873 +16 26 05.69603
 2019-Jan-08 06:07     05 15 26.116173 +16 26 06.00805
 2019-Jan-08 06:08     05 15 26.095466 +16 26 06.32002
 2019-Jan-08 06:09     05 15 26.074752 +16 26 06.63193
 2019-Jan-08 06:10     05 15 26.054029 +16 26 06.94378
